IRIDIUM 155             
1 43573U 18061E   24109.33145054  .00000751  00000+0  26105-3 0  9998
2 43573  86.4018  26.7659 0002322  80.3578 279.7880 14.34228698300142
IRIDIUM 154             
1 43574U 18061F   24109.73106081  .00001046  00000+0  36652-3 0  9996
2 43574  86.4021  26.6937 0002125  92.1234 268.0206 14.34225128300256
IRIDIUM 163             
1 43575U 18061G   24109.71201678  .00000216  00000+0  70015-4 0  9993
2 43575  86.4017  26.6421 0002307  85.6450 274.5009 14.34218380300221
IRIDIUM 156             
1 43576U 18061H   24110.31456475  .00000752  00000+0  26133-3 0  9995
2 43576  86.4017  26.3967 0002076  82.8271 277.3161 14.34216926300298
IRIDIUM 164             
1 43577U 18061J   24110.29553355  .00000708  00000+0  24560-3 0  9991
2 43577  86.4022  26.4326 0001894  88.4780 271.6632 14.34214826300342
IRIDIUM 159             
1 43578U 18061K   24109.70567472  .00000378  00000+0  12791-3 0  9997
2 43578  86.4019  26.6318 0002200  86.9113 273.2334 14.34219680300224
IRIDIUM 180             
1 43922U 19002A   24110.54238642  .00000536  00000+0  18429-3 0  9994
2 43922  86.3954 323.1985 0002133  89.5096 270.6344 14.34220175275991
IRIDIUM 176             
1 43923U 19002B   24110.52968173  .00003878  00000+0  61086-3 0  9991
2 43923  86.6091 323.2311 0002461  87.8188 272.3311 14.72258203283210
IRIDIUM 168             
1 43924U 19002C   24110.53604898  .00000679  00000+0  23543-3 0  9996
2 43924  86.3959 323.2564 0002093  82.8487 277.2947 14.34217898275931
IRIDIUM 173             
1 43925U 19002D   24110.52336354  .00000463  00000+0  15816-3 0  9990
2 43925  86.3957 323.1830 0002053  89.8172 270.3259 14.34217240275929
IRIDIUM 169             
1 43926U 19002E   24109.72470176  .00000874  00000+0  27916-3 0  9992
2 43926  86.4269 355.1220 0004334  75.5431 284.6248 14.38611166276723
IRIDIUM 172             
1 43927U 19002F   24110.09841142  .00000063  00000+0  15562-4 0  9995
2 43927  86.3955 323.3658 0002064  87.9379 272.2053 14.34218813275862
IRIDIUM 175             
1 43928U 19002G   24110.52389797  .00002769  00000+0  43519-3 0  9994
2 43928  86.1467 299.6815 0002322  84.6710 275.4771 14.72245560283209
IRIDIUM 171             
1 43929U 19002H   24109.66076951  .00000432  00000+0  14729-3 0  9999
2 43929  86.3966 323.7683 0001982  85.3982 274.7440 14.34220684275796
IRIDIUM 170             
1 43930U 19002J   24109.65228356  .00002490  00000+0  39093-3 0  9995
2 43930  86.6087 323.6016 0002312  92.5857 267.5625 14.72254250283098
IRIDIUM 167             
1 43931U 19002K   24110.07303971  .00000220  00000+0  71578-4 0  9995
2 43931  86.3955 323.3924 0002077  86.0756 274.0677 14.34218116275853
IRIDIUM 181             
1 56726U 23068S   24109.77231783  .00001098  00000+0  31847-3 0  9992
2 56726  86.8691  14.3356 0002136  79.7465 280.3977 14.43578244 48569
IRIDIUM 177             
1 56727U 23068T   24110.14138092  .00004189  00000+0  54820-3 0  9995
2 56727  86.2006 343.4051 0001952  83.8354 276.3089 14.80188564 49642
IRIDIUM 174             
1 56728U 23068U   24109.18953105  .00002828  00000+0  36879-3 0  9990
2 56728  86.2009 343.9571 0002689  90.5303 269.6226 14.80217982 49505
IRIDIUM 178             
1 56729U 23068V   24110.19816559  .00003403  00000+0  44443-3 0  9991
2 56729  86.5831 358.1376 0002727  88.4164 271.7370 14.80218648 49657
IRIDIUM 179             
1 56730U 23068W   24110.19273323  .00003280  00000+0  42846-3 0  9997
2 56730  86.6838   1.5285 0002899  94.1237 266.0316 14.80210982 49650
